NORAD_CAT_ID,OBJECT_NAME,OBJECT_TYPE,EPOCH,MEAN_MOTION,ECCENTRICITY,INCLINATION,RA_OF_ASC_NODE,ARG_OF_PERICENTER,MEAN_ANOMALY,BSTAR,MEAN_MOTION_DOT,MEAN_MOTION_DDOT,TLE_LINE0,TLE_LINE1,TLE_LINE2,SEMIMAJOR_AXIS,PERIOD,APOGEE,PERIGEE,DECAYED
51859.0,STARLINK-3560,PAYLOAD,2024-03-25 22:03:28,15.0880395,0.0001591,53.2183,333.3719,112.1752,247.9409,-0.00073842,-0.00012009,0.0,0 STARLINK-3560,1 51859U 22022H   24085.91908161 -.00012009  00000-0 -73842-3 0  9991,2 51859  53.2183 333.3719 0001591 112.1752 247.9409 15.08803950115401,6917.991,95.44,540.956,538.755,0.0
51859.0,STARLINK-3560,PAYLOAD,2024-03-26 09:11:10,15.08829558,0.0001197,53.2173,331.2872,112.8629,247.249,0.00038951,5.915e-05,0.0,0 STARLINK-3560,1 51859U 22022H   24086.38276237  .00005915  00000-0  38951-3 0  9993,2 51859  53.2173 331.2872 0001197 112.8629 247.2490 15.08829558115471,6917.912,95.438,540.605,538.949,0.0
51859.0,STARLINK-3560,PAYLOAD,2024-03-26 21:54:14,15.08862296,0.000128,53.2169,328.9095,106.626,253.4873,0.00083663,0.0001306,0.0,0 STARLINK-3560,1 51859U 22022H   24086.91267103  .00013060  00000-0  83663-3 0  9994,2 51859  53.2169 328.9095 0001280 106.6260 253.4873 15.08862296115550,6917.812,95.436,540.563,538.792,0.0
51859.0,STARLINK-3560,PAYLOAD,2024-03-26 23:29:37,15.08864863,0.0001224,53.217,328.6123,108.2212,251.8914,0.00086855,0.00013571,0.0,0 STARLINK-3560,1 51859U 22022H   24086.97890944  .00013571  00000-0  86855-3 0  9998,2 51859  53.2170 328.6123 0001224 108.2212 251.8914 15.08864863115565,6917.804,95.436,540.516,538.823,0.0
51859.0,STARLINK-3560,PAYLOAD,2024-03-27 09:01:55,15.08889002,0.0001378,53.2168,326.8281,84.9252,275.1897,0.0011822,0.00018602,0.0,0 STARLINK-3560,1 51859U 22022H   24087.37633610  .00018602  00000-0  11822-2 0  9999,2 51859  53.2168 326.8281 0001378  84.9252 275.1897 15.08889002115629,6917.731,95.434,540.549,538.642,0.0
51859.0,STARLINK-3560,PAYLOAD,2024-03-27 20:09:39,15.08818572,0.0001348,53.217,324.7463,102.5053,257.609,-0.00059576,-9.751e-05,0.0,0 STARLINK-3560,1 51859U 22022H   24087.84003568 -.00009751  00000-0 -59576-3 0  9990,2 51859  53.2170 324.7463 0001348 102.5053 257.6090 15.08818572115695,6917.946,95.439,540.743,538.878,0.0
51859.0,STARLINK-3560,PAYLOAD,2024-03-27 21:45:02,15.08819215,0.0001273,53.2169,324.4466,96.1218,263.9919,-0.00061988,-0.00010134,0.0,0 STARLINK-3560,1 51859U 22022H   24087.90627530 -.00010134  00000-0 -61988-3 0  9995,2 51859  53.2169 324.4466 0001273  96.1218 263.9919 15.08819215115708,6917.944,95.439,540.69,538.928,0.0
51859.0,STARLINK-3560,PAYLOAD,2024-03-28 08:52:43,15.08828757,0.0001222,53.2166,322.3666,104.15,255.9628,-0.00024145,-4.127e-05,0.0,0 STARLINK-3560,1 51859U 22022H   24088.36995274 -.00004127  00000-0 -24145-3 0  9998,2 51859  53.2166 322.3666 0001222 104.1500 255.9628 15.08828757115778,6917.915,95.438,540.625,538.934,0.0
51859.0,STARLINK-3560,PAYLOAD,2024-03-28 21:35:49,15.08836912,0.0001255,53.2158,319.9879,92.0202,268.0933,0.0011402,0.00017903,0.0,0 STARLINK-3560,1 51859U 22022H   24088.89988232  .00017903  00000-0  11402-2 0  9997,2 51859  53.2158 319.9879 0001255  92.0202 268.0933 15.08836912115852,6917.89,95.438,540.623,538.887,0.0
51859.0,STARLINK-3560,PAYLOAD,2024-03-29 00:46:36,15.08845571,0.0001208,53.2161,319.3935,89.8816,270.2314,0.0013155,0.00020713,0.0,0 STARLINK-3560,1 51859U 22022H   24089.03236163  .00020713  00000-0  13155-2 0  9993,2 51859  53.2161 319.3935 0001208  89.8816 270.2314 15.08845571115877,6917.863,95.437,540.564,538.893,0.0
51859.0,STARLINK-3560,PAYLOAD,2024-03-29 08:43:31,15.08857052,0.0001153,53.2158,317.9045,94.6342,265.4781,0.0011695,0.00018382,0.0,0 STARLINK-3560,1 51859U 22022H   24089.36355837  .00018382  00000-0  11695-2 0  9995,2 51859  53.2158 317.9045 0001153  94.6342 265.4781 15.08857052115923,6917.828,95.436,540.491,538.896,0.0
51859.0,STARLINK-3560,PAYLOAD,2024-03-29 21:26:36,15.08877275,0.0002013,53.2161,315.5269,81.7269,278.3951,0.0013031,0.00020533,0.0,0 STARLINK-3560,1 51859U 22022H   24089.89347241  .00020533  00000-0  13031-2 0  9990,2 51859  53.2161 315.5269 0002013  81.7269 278.3951 15.08877275116001,6917.766,95.435,541.024,538.239,0.0
51859.0,STARLINK-3560,PAYLOAD,2024-03-30 00:37:22,15.08867386,0.0001421,53.2159,314.9313,83.637,276.4784,0.00081023,0.0001264,0.0,0 STARLINK-3560,1 51859U 22022H   24090.02595053  .00012640  00000-0  81023-3 0  9990,2 51859  53.2159 314.9313 0001421  83.6370 276.4784 15.08867386116024,6917.797,95.436,540.645,538.679,0.0
51859.0,STARLINK-3560,PAYLOAD,2024-03-30 08:34:17,15.08868111,0.0001499,53.2159,313.4434,88.3994,271.717,0.00048077,7.378e-05,0.0,0 STARLINK-3560,1 51859U 22022H   24090.35714488  .00007378  00000-0  48077-3 0  9995,2 51859  53.2159 313.4434 0001499  88.3994 271.7170 15.08868111116070,6917.794,95.436,540.696,538.622,0.0
51859.0,STARLINK-3560,PAYLOAD,2024-03-30 21:17:23,15.08843725,0.0001989,53.2163,311.0658,97.7428,262.379,-1.1134e-05,-4.65e-06,0.0,0 STARLINK-3560,1 51859U 22022H   24090.88707598 -.00000465  00000-0 -11134-4 0  9994,2 51859  53.2163 311.0658 0001989  97.7428 262.3790 15.08843725116154,6917.869,95.437,541.11,538.358,0.0
51859.0,STARLINK-3560,PAYLOAD,2024-03-31 00:28:09,15.08832179,0.0001358,53.2175,310.4718,91.9185,268.1963,-5.0208e-05,-1.087e-05,0.0,0 STARLINK-3560,1 51859U 22022H   24091.01955597 -.00001087  00000-0 -50208-4 0  9990,2 51859  53.2175 310.4718 0001358  91.9185 268.1963 15.08832179116172,6917.904,95.438,540.709,538.83,0.0
51859.0,STARLINK-3560,PAYLOAD,2024-03-31 21:08:10,15.08842712,0.0001541,53.2195,306.6051,101.0763,259.0403,0.00086458,0.000135,0.0,0 STARLINK-3560,1 51859U 22022H   24091.88068209  .00013500  00000-0  86458-3 0  9996,2 51859  53.2195 306.6051 0001541 101.0763 259.0403 15.08842712116307,6917.872,95.437,540.803,538.671,0.0
51859.0,STARLINK-3560,PAYLOAD,2024-04-01 06:40:30,15.08830248,0.0001181,53.2161,304.8207,92.5245,267.5882,0.00034525,5.21e-05,0.0,0 STARLINK-3560,1 51859U 22022H   24092.27812671  .00005210  00000-0  34525-3 0  9997,2 51859  53.2161 304.8207 0001181  92.5245 267.5882 15.08830248116364,6917.91,95.438,540.592,538.958,0.0
51859.0,STARLINK-3560,PAYLOAD,2024-04-01 14:37:25,15.08832677,0.0001152,53.2178,303.3343,89.6839,270.4285,0.00053909,8.3e-05,0.0,0 STARLINK-3560,1 51859U 22022H   24092.60932844  .00008300  00000-0  53909-3 0  9999,2 51859  53.2178 303.3343 0001152  89.6839 270.4285 15.08832677116415,6917.903,95.438,540.565,538.971,0.0
51859.0,STARLINK-3560,PAYLOAD,2024-04-01 20:58:58,15.08849359,0.0001124,53.2168,302.1457,99.3942,260.7178,0.00090506,0.00014149,0.0,0 STARLINK-3560,1 51859U 22022H   24092.87428680  .00014149  00000-0  90506-3 0  9998,2 51859  53.2168 302.1457 0001124  99.3942 260.7178 15.08849359116451,6917.852,95.437,540.494,538.939,0.0
51859.0,STARLINK-3560,PAYLOAD,2024-04-02 06:31:16,15.08861241,0.0001085,53.2166,300.3615,100.2623,259.8491,0.0010443,0.00016381,0.0,0 STARLINK-3560,1 51859U 22022H   24093.27172271  .00016381  00000-0  10443-2 0  9996,2 51859  53.2166 300.3615 0001085 100.2623 259.8491 15.08861241116517,6917.815,95.436,540.431,538.93,0.0
51859.0,STARLINK-3560,PAYLOAD,2024-04-02 20:49:45,15.08839434,0.0001375,53.2184,297.687,100.6542,259.4605,9.7729e-05,1.268e-05,0.0,0 STARLINK-3560,1 51859U 22022H   24093.86788694  .00001268  00000-0  97729-4 0  9995,2 51859  53.2184 297.6870 0001375 100.6542 259.4605 15.08839434116606,6917.882,95.438,540.698,538.796,0.0
51859.0,STARLINK-3560,PAYLOAD,2024-04-03 12:43:36,15.08846004,0.0001287,53.2167,294.7121,89.7487,270.3653,0.00064588,0.00010008,0.0,0 STARLINK-3560,1 51859U 22022H   24094.53028766  .00010008  00000-0  64588-3 0  9995,2 51859  53.2167 294.7121 0001287  89.7487 270.3653 15.08846004116708,6917.862,95.437,540.617,538.837,0.0
51859.0,STARLINK-3560,PAYLOAD,2024-04-03 22:15:55,15.08846027,0.0001344,53.2169,292.9282,90.3509,269.7637,0.00044792,6.849e-05,0.0,0 STARLINK-3560,1 51859U 22022H   24094.92772788  .00006849  00000-0  44792-3 0  9991,2 51859  53.2169 292.9282 0001344  90.3509 269.7637 15.08846027116760,6917.862,95.437,540.657,538.797,0.0
51859.0,STARLINK-3560,PAYLOAD,2024-04-04 06:12:51,15.08851979,0.0001344,53.2166,291.4405,80.0328,280.0816,0.00046097,7.058e-05,0.0,0 STARLINK-3560,1 51859U 22022H   24095.25892505  .00007058  00000-0  46097-3 0  9991,2 51859  53.2166 291.4405 0001344  80.0328 280.0816 15.08851979116816,6917.844,95.437,540.639,538.779,0.0
51859.0,STARLINK-3560,PAYLOAD,2024-04-04 20:31:19,15.08844491,0.00012,53.2159,288.7645,84.7525,275.3604,0.00021453,3.128e-05,0.0,0 STARLINK-3560,1 51859U 22022H   24095.85508603  .00003128  00000-0  21453-3 0  9993,2 51859  53.2159 288.7645 0001200  84.7525 275.3604 15.08844491116907,6917.867,95.437,540.562,538.902,0.0
51859.0,STARLINK-3560,PAYLOAD,2024-04-04 22:06:42,15.08845314,0.0001205,53.2159,288.4671,84.3758,275.7372,0.00024383,3.595e-05,0.0,0 STARLINK-3560,1 51859U 22022H   24095.92132583  .00003595  00000-0  24383-3 0  9994,2 51859  53.2159 288.4671 0001205  84.3758 275.7372 15.08845314116914,6917.864,95.437,540.563,538.896,0.0
51859.0,STARLINK-3560,PAYLOAD,2024-04-05 12:25:10,15.08849655,0.0001234,53.2152,285.7917,82.4772,277.6361,0.00036827,5.58e-05,0.0,0 STARLINK-3560,1 51859U 22022H   24096.51748401  .00005580  00000-0  36827-3 0  9994,2 51859  53.2152 285.7917 0001234  82.4772 277.6361 15.08849655117009,6917.851,95.437,540.57,538.862,0.0
51859.0,STARLINK-3560,PAYLOAD,2024-04-05 18:46:43,15.08843395,0.0001267,53.2155,284.6022,83.6721,276.4416,0.00016091,2.274e-05,0.0,0 STARLINK-3560,1 51859U 22022H   24096.78244630  .00002274  00000-0  16091-3 0  9996,2 51859  53.2155 284.6022 0001267  83.6721 276.4416 15.08843395117047,6917.87,95.437,540.612,538.859,0.0
51859.0,STARLINK-3560,PAYLOAD,2024-04-06 12:15:57,15.08845553,0.0001295,53.2154,281.3312,81.4243,278.6896,0.00024477,3.61e-05,0.0,0 STARLINK-3560,1 51859U 22022H   24097.51108620  .00003610  00000-0  24477-3 0  9998,2 51859  53.2154 281.3312 0001295  81.4243 278.6896 15.08845553117154,6917.863,95.437,540.624,538.833,0.0
